[{"OBJECT_NAME":"STARLINK-30414","OBJECT_ID":"2023-141V","EPOCH":"2026-03-09T21:38:14.270784","MEAN_MOTION":15.30188631,"ECCENTRICITY":0.00011283,"INCLINATION":53.1588,"RA_OF_ASC_NODE":282.91,"ARG_OF_PERICENTER":111.6124,"MEAN_ANOMALY":248.4997,"EPHEMERIS_TYPE":0,"CLASSIFICATION_TYPE":"U","NORAD_CAT_ID":57859,"ELEMENT_SET_NO":999,"REV_AT_EPOCH":14036,"BSTAR":6.948816e-6,"MEAN_MOTION_DOT":-1.53e-6,"MEAN_MOTION_DDOT":0},{"OBJECT_NAME":"OBJECT P","OBJECT_ID":"2018-099P","EPOCH":"2026-03-09T16:35:55.790016","MEAN_MOTION":15.30834106,"ECCENTRICITY":0.00076856,"INCLINATION":97.4366,"RA_OF_ASC_NODE":131.9195,"ARG_OF_PERICENTER":276.7627,"MEAN_ANOMALY":83.2739,"EPHEMERIS_TYPE":0,"CLASSIFICATION_TYPE":"U","NORAD_CAT_ID":43771,"ELEMENT_SET_NO":999,"REV_AT_EPOCH":39830,"BSTAR":0.00063632878,"MEAN_MOTION_DOT":0.00018926,"MEAN_MOTION_DDOT":0}]
